0 FENGYUN 1C DEB
1 31782U 99025CGH 13281.44434148  .00000450  00000-0  19013-3 0  4297
2 31782 098.7845 350.7815 0090153 066.8473 349.5380 14.28180610331791
0 FENGYUN 1C DEB
1 31782U 99025CGH 13284.45881027  .00000537  00000-0  22373-3 0  4304
2 31782 098.7845 353.8143 0089997 058.1130 008.2536 14.28185985332228
0 FENGYUN 1C DEB
1 31782U 99025CGH 13286.99200293  .00000602  00000-0  24866-3 0  4318
2 31782 098.7842 356.3632 0089872 050.7567 072.5682 14.28188009332585
0 FENGYUN 1C DEB
1 31782U 99025CGH 13289.02328825  .00000677  00000-0  27770-3 0  4327
2 31782 098.7837 358.4070 0089766 044.8563 076.3644 14.28192490332871
0 FENGYUN 1C DEB
1 31782U 99025CGH 13291.39370664  .00000641  00000-0  26387-3 0  4333
2 31782 098.7831 000.7919 0089628 037.9657 023.8445 14.28195510333219
0 FENGYUN 1C DEB
1 31782U 99025CGH 13294.40580097  .00000664  00000-0  27292-3 0  4343
2 31782 098.7828 003.8221 0089467 029.1945 030.5480 14.28199665333645
